[{"OBJECT_NAME":"SENTINEL-2A","OBJECT_ID":"2015-028A","EPOCH":"2026-02-25T04:19:12.423360","MEAN_MOTION":14.30192923,"ECCENTRICITY":0.00543683,"INCLINATION":98.5024,"RA_OF_ASC_NODE":132.8928,"ARG_OF_PERICENTER":194.7437,"MEAN_ANOMALY":165.2162,"EPHEMERIS_TYPE":0,"CLASSIFICATION_TYPE":"U","NORAD_CAT_ID":40697,"ELEMENT_SET_NO":999,"REV_AT_EPOCH":55771,"BSTAR":7.6852184e-5,"MEAN_MOTION_DOT":1.59e-6,"MEAN_MOTION_DDOT":0},{"OBJECT_NAME":"COSMOS 1275 DEB","OBJECT_ID":"1981-053EM","EPOCH":"2026-03-09T04:36:59.967072","MEAN_MOTION":14.12207914,"ECCENTRICITY":0.00298283,"INCLINATION":82.9432,"RA_OF_ASC_NODE":336.0147,"ARG_OF_PERICENTER":212.5788,"MEAN_ANOMALY":299.7691,"EPHEMERIS_TYPE":0,"CLASSIFICATION_TYPE":"U","NORAD_CAT_ID":12966,"ELEMENT_SET_NO":999,"REV_AT_EPOCH":25118,"BSTAR":0.0013290468,"MEAN_MOTION_DOT":2.467e-5,"MEAN_MOTION_DDOT":0}]
